1 37673U 11024A   14054.57286192  .00000714  00000-0  12069-3 0  9991
2 37673 098.0128 063.4030 0001458 103.5653 006.9396 14.72324795145516
